NORAD_CAT_ID,OBJECT_NAME,OBJECT_TYPE,EPOCH,MEAN_MOTION,ECCENTRICITY,INCLINATION,RA_OF_ASC_NODE,ARG_OF_PERICENTER,MEAN_ANOMALY,BSTAR,MEAN_MOTION_DOT,MEAN_MOTION_DDOT,TLE_LINE0,TLE_LINE1,TLE_LINE2,SEMIMAJOR_AXIS,PERIOD,APOGEE,PERIGEE,DECAYED
52473.0,STARLINK-3879,PAYLOAD,2024-02-25 15:09:40,15.08849358,0.0001412,53.2176,154.8368,85.3043,274.8111,7.1399e-05,8.49e-06,0.0,0 STARLINK-3879,1 52473U 22049Y   24056.63171488  .00000849  00000-0  71399-4 0  9997,2 52473  53.2176 154.8368 0001412  85.3043 274.8111 15.08849358100076,6917.852,95.437,540.694,538.74,0.0
52473.0,STARLINK-3879,PAYLOAD,2024-02-25 23:06:36,15.08831355,0.0001321,53.2177,153.3477,91.5023,268.612,-7.7346e-06,-4.11e-06,0.0,0 STARLINK-3879,1 52473U 22049Y   24056.96292720 -.00000411  00000-0 -77346-5 0  9992,2 52473  53.2177 153.3477 0001321  91.5023 268.6120 15.08831355100280,6917.907,95.438,540.686,538.858,0.0
52473.0,STARLINK-3879,PAYLOAD,2024-02-26 11:49:42,15.08823789,0.0001526,53.2184,150.9721,103.0592,257.057,-4.0806e-05,-9.37e-06,0.0,0 STARLINK-3879,1 52473U 22049Y   24057.49285823 -.00000937  00000-0 -40806-4 0  9990,2 52473  53.2184 150.9721 0001526 103.0592 257.0570 15.08823789100362,6917.93,95.439,540.851,538.739,0.0
52473.0,STARLINK-3879,PAYLOAD,2024-02-26 16:35:51,15.0883078,0.0001554,53.2181,150.0783,106.257,253.8593,9.7893e-06,-1.32e-06,0.0,0 STARLINK-3879,1 52473U 22049Y   24057.69157339 -.00000132  00000-0  97893-5 0  9997,2 52473  53.2181 150.0783 0001554 106.2570 253.8593 15.08830780100391,6917.909,95.438,540.849,538.699,0.0
52473.0,STARLINK-3879,PAYLOAD,2024-02-27 11:40:29,15.08844751,0.0001757,53.2187,146.5088,114.8583,245.2592,1.3794e-05,-6.9e-07,0.0,0 STARLINK-3879,1 52473U 22049Y   24058.48644690 -.00000069  00000-0  13794-4 0  9992,2 52473  53.2187 146.5088 0001757 114.8583 245.2592 15.08844751100510,6917.866,95.437,540.946,538.515,0.0
52473.0,STARLINK-3879,PAYLOAD,2024-02-27 13:15:51,15.08847176,0.0001605,53.2183,146.2103,110.1549,249.9616,3.296e-05,2.37e-06,0.0,0 STARLINK-3879,1 52473U 22049Y   24058.55268491  .00000237  00000-0  32960-4 0  9993,2 52473  53.2183 146.2103 0001605 110.1549 249.9616 15.08847176100369,6917.858,95.437,540.834,538.613,0.0
52473.0,STARLINK-3879,PAYLOAD,2024-02-28 13:06:39,15.08835993,0.0001319,53.2174,141.7523,97.4745,262.6397,7.1524e-05,8.5e-06,0.0,0 STARLINK-3879,1 52473U 22049Y   24059.54629490  .00000850  00000-0  71524-4 0  9993,2 52473  53.2174 141.7523 0001319  97.4745 262.6397 15.08835993100678,6917.893,95.438,540.67,538.845,0.0
52473.0,STARLINK-3879,PAYLOAD,2024-02-29 11:22:02,15.08852258,0.0001307,53.2167,137.5894,90.7954,269.3188,7.305e-05,8.75e-06,0.0,0 STARLINK-3879,1 52473U 22049Y   24060.47364551  .00000875  00000-0  73050-4 0  9994,2 52473  53.2167 137.5894 0001307  90.7954 269.3188 15.08852258100810,6917.843,95.437,540.612,538.804,0.0
52473.0,STARLINK-3879,PAYLOAD,2024-03-01 11:12:51,15.08833811,0.0001392,53.2166,133.1285,90.8479,269.2672,0.00012351,1.678e-05,0.0,0 STARLINK-3879,1 52473U 22049Y   24061.46726844  .00001678  00000-0  12351-3 0  9999,2 52473  53.2166 133.1285 0001392  90.8479 269.2672 15.08833811100802,6917.899,95.438,540.727,538.801,0.0
52473.0,STARLINK-3879,PAYLOAD,2024-03-02 11:03:37,15.0887221,0.0001487,53.2161,128.6667,93.7159,266.4003,0.00080257,0.00012519,0.0,0 STARLINK-3879,1 52473U 22049Y   24062.46085502  .00012519  00000-0  80257-3 0  9995,2 52473  53.2161 128.6667 0001487  93.7159 266.4003 15.08872210101110,6917.782,95.436,540.676,538.618,0.0
52473.0,STARLINK-3879,PAYLOAD,2024-03-03 04:32:51,15.08862072,0.000148,53.216,125.3943,111.671,248.444,0.00017109,2.438e-05,0.0,0 STARLINK-3879,1 52473U 22049Y   24063.18948946  .00002438  00000-0  17109-3 0  9990,2 52473  53.2160 125.3943 0001480 111.6710 248.4440 15.08862072101228,6917.813,95.436,540.702,538.654,0.0
52473.0,STARLINK-3879,PAYLOAD,2024-03-03 10:54:24,15.08854004,0.0001326,53.2158,124.2052,98.5825,261.5317,-0.00013843,-2.491e-05,0.0,0 STARLINK-3879,1 52473U 22049Y   24063.45444965 -.00002491  00000-0 -13843-3 0  9994,2 52473  53.2158 124.2052 0001326  98.5825 261.5317 15.08854004101262,6917.838,95.437,540.62,538.785,0.0
52473.0,STARLINK-3879,PAYLOAD,2024-03-04 10:45:11,15.08860177,0.0001612,53.2167,119.7489,108.523,251.5938,0.00071091,0.0001105,0.0,0 STARLINK-3879,1 52473U 22049Y   24064.44804419  .00011050  00000-0  71091-3 0  9996,2 52473  53.2167 119.7489 0001612 108.5230 251.5938 15.08860177101250,6917.819,95.436,540.799,538.569,0.0
52473.0,STARLINK-3879,PAYLOAD,2024-03-04 20:17:29,15.08849266,0.0001249,53.2161,117.9613,79.8495,280.2638,0.00035013,5.29e-05,0.0,0 STARLINK-3879,1 52473U 22049Y   24064.84548416  .00005290  00000-0  35013-3 0  9995,2 52473  53.2161 117.9613 0001249  79.8495 280.2638 15.08849266101478,6917.852,95.437,540.581,538.853,0.0
52473.0,STARLINK-3879,PAYLOAD,2024-03-05 02:39:03,15.08834792,0.0002325,53.2166,116.7752,86.2357,273.8901,-9.4014e-05,-1.784e-05,0.0,0 STARLINK-3879,1 52473U 22049Y   24065.11045242 -.00001784  00000-0 -94014-4 0  9998,2 52473  53.2166 116.7752 0002325  86.2357 273.8901 15.08834792101513,6917.896,95.438,541.37,538.153,0.0
52473.0,STARLINK-3879,PAYLOAD,2024-03-05 13:46:45,15.08816514,0.0001542,53.2162,114.6922,84.0815,276.0353,7.8215e-05,9.56e-06,0.0,0 STARLINK-3879,1 52473U 22049Y   24065.57414081  .00000956  00000-0  78215-4 0  9992,2 52473  53.2162 114.6922 0001542  84.0815 276.0353 15.08816514101428,6917.952,95.439,540.884,538.75,0.0
52473.0,STARLINK-3879,PAYLOAD,2024-03-06 10:26:47,15.08848376,0.000149,53.2155,110.8262,78.3301,281.7858,0.0012059,0.0001896,0.0,0 STARLINK-3879,1 52473U 22049Y   24066.43526634  .00018960  00000-0  12059-2 0  9992,2 52473  53.2155 110.8262 0001490  78.3301 281.7858 15.08848376101719,6917.855,95.437,540.751,538.689,0.0
52473.0,STARLINK-3879,PAYLOAD,2024-03-06 12:02:10,15.08854159,0.0001491,53.2155,110.5288,78.1506,281.9653,0.0014221,0.00022426,0.0,0 STARLINK-3879,1 52473U 22049Y   24066.50150554  .00022426  00000-0  14221-2 0  9999,2 52473  53.2155 110.5288 0001491  78.1506 281.9653 15.08854159101564,6917.837,95.437,540.734,538.671,0.0
52473.0,STARLINK-3879,PAYLOAD,2024-03-07 02:20:37,15.08859755,0.000151,53.2149,107.852,79.9522,280.1641,0.00086948,0.00013584,0.0,0 STARLINK-3879,1 52473U 22049Y   24067.09766136  .00013584  00000-0  86948-3 0  9994,2 52473  53.2149 107.8520 0001510  79.9522 280.1641 15.08859755101817,6917.82,95.436,540.73,538.64,0.0
52473.0,STARLINK-3879,PAYLOAD,2024-03-07 10:17:32,15.08876314,0.000152,53.2154,106.3652,80.714,279.4024,0.0011443,0.00017989,0.0,0 STARLINK-3879,1 52473U 22049Y   24067.42885408  .00017989  00000-0  11443-2 0  9995,2 52473  53.2154 106.3652 0001520  80.7140 279.4024 15.08876314101704,6917.769,95.435,540.686,538.583,0.0
52473.0,STARLINK-3879,PAYLOAD,2024-03-08 13:19:07,15.0882151,0.0001506,53.2157,101.3109,90.0078,270.1087,0.00016846,2.393e-05,0.0,0 STARLINK-3879,1 52473U 22049Y   24068.55495069  .00002393  00000-0  16846-3 0  9996,2 52473  53.2157 101.3109 0001506  90.0078 270.1087 15.08821510102039,6917.937,95.439,540.844,538.76,0.0
52473.0,STARLINK-3879,PAYLOAD,2024-03-08 19:40:40,15.08825057,0.0001509,53.2154,100.12,96.4261,263.6903,0.0008338,0.00013001,0.0,0 STARLINK-3879,1 52473U 22049Y   24068.81991507  .00013001  00000-0  83380-3 0  9998,2 52473  53.2154 100.1200 0001509  96.4261 263.6903 15.08825057101912,6917.926,95.438,540.835,538.747,0.0
52473.0,STARLINK-3879,PAYLOAD,2024-03-09 08:23:45,15.08851128,0.000151,53.2155,97.7412,93.5435,266.5729,0.0013733,0.00021642,0.0,0 STARLINK-3879,1 52473U 22049Y   24069.34983561  .00021642  00000-0  13733-2 0  9992,2 52473  53.2155  97.7412 0001510  93.5435 266.5729 15.08851128102155,6917.846,95.437,540.756,538.667,0.0
52473.0,STARLINK-3879,PAYLOAD,2024-03-10 05:03:45,15.08868608,0.0001527,53.2153,93.8749,93.3383,266.7784,0.00088261,0.00013798,0.0,0 STARLINK-3879,1 52473U 22049Y   24070.21094563  .00013798  00000-0  88261-3 0  9997,2 52473  53.2153  93.8749 0001527  93.3383 266.7784 15.08868608102289,6917.793,95.436,540.714,538.602,0.0
52473.0,STARLINK-3879,PAYLOAD,2024-03-10 08:14:31,15.0887102,0.000152,53.2154,93.2802,92.7089,267.4077,0.00084211,0.00013151,0.0,0 STARLINK-3879,1 52473U 22049Y   24070.34342312  .00013151  00000-0  84211-3 0  9993,2 52473  53.2154  93.2802 0001520  92.7089 267.4077 15.08871020102143,6917.786,95.436,540.702,538.599,0.0
52473.0,STARLINK-3879,PAYLOAD,2024-03-11 04:54:32,15.08853282,0.0001733,53.2157,89.412,96.3899,263.7291,0.00011239,1.502e-05,0.0,0 STARLINK-3879,1 52473U 22049Y   24071.20454000  .00001502  00000-0  11239-3 0  9994,2 52473  53.2157  89.4120 0001733  96.3899 263.7291 15.08853282102430,6917.84,95.437,540.904,538.506,0.0
52473.0,STARLINK-3879,PAYLOAD,2024-03-11 08:05:18,15.08844835,0.0001472,53.2158,88.8192,82.292,277.824,4.4057e-05,4.13e-06,0.0,0 STARLINK-3879,1 52473U 22049Y   24071.33702052  .00000413  00000-0  44057-4 0  9996,2 52473  53.2158  88.8192 0001472  82.2920 277.8240 15.08844835102290,6917.866,95.437,540.749,538.712,0.0
52473.0,STARLINK-3879,PAYLOAD,2024-03-11 17:37:37,15.08841145,0.0001529,53.2155,87.0347,80.9435,279.173,0.00036336,5.5e-05,0.0,0 STARLINK-3879,1 52473U 22049Y   24071.73446221  .00005500  00000-0  36336-3 0  9995,2 52473  53.2155  87.0347 0001529  80.9435 279.1730 15.08841145102514,6917.877,95.437,540.8,538.684,0.0
52473.0,STARLINK-3879,PAYLOAD,2024-03-12 07:56:05,15.08847195,0.0001553,53.216,84.3602,91.3286,268.7884,5.3506e-05,5.64e-06,0.0,0 STARLINK-3879,1 52473U 22049Y   24072.33061918  .00000564  00000-0  53506-4 0  9992,2 52473  53.2160  84.3602 0001553  91.3286 268.7884 15.08847195102448,6917.858,95.437,540.798,538.649,0.0
52473.0,STARLINK-3879,PAYLOAD,2024-03-13 04:36:06,15.08839948,0.0001607,53.2163,80.4938,85.6403,274.4773,0.00011014,1.465e-05,0.0,0 STARLINK-3879,1 52473U 22049Y   24073.19174278  .00001465  00000-0  11014-3 0  9999,2 52473  53.2163  80.4938 0001607  85.6403 274.4773 15.08839948102737,6917.881,95.438,540.857,538.634,0.0
